{
    "links": {
        "self": "http://www.neowsapp.com/rest/v1/neo/54016190?api_key=iIulBulltgU6a56xZRHN4H3l9WmuAYTsLGpBGhQ2"
    },
    "id": "54016190",
    "neo_reference_id": "54016190",
    "name": "(2020 ET)",
    "designation": "2020 ET",
    "nasa_jpl_url": "http://ssd.jpl.nasa.gov/sbdb.cgi?sstr=54016190",
    "absolute_magnitude_h": 25.774,
    "estimated_diameter": {
        "kilometers": {
            "estimated_diameter_min": 0.0186103687,
            "estimated_diameter_max": 0.0416140494
        },
        "meters": {
            "estimated_diameter_min": 18.6103686721,
            "estimated_diameter_max": 41.6140494372
        },
        "miles": {
            "estimated_diameter_min": 0.0115639434,
            "estimated_diameter_max": 0.0258577635
        },
        "feet": {
            "estimated_diameter_min": 61.0576419543,
            "estimated_diameter_max": 136.5290379556
        }
    },
    "is_potentially_hazardous_asteroid": false,
    "close_approach_data": [
        {
            "close_approach_date": "2020-03-17",
            "close_approach_date_full": "2020-Mar-17 12:38",
            "epoch_date_close_approach": 1584448680000,
            "relative_velocity": {
                "kilometers_per_second": "7.6102964294",
                "kilometers_per_hour": "27397.0671458314",
                "miles_per_hour": "17023.4720829195"
            },
            "miss_distance": {
                "astronomical": "0.0199373962",
                "lunar": "7.7556471218",
                "kilometers": "2982592.004866094",
                "miles": "1853296.7333123372"
            },
            "orbiting_body": "Earth"
        },
        {
            "close_approach_date": "2022-03-27",
            "close_approach_date_full": "2022-Mar-27 09:11",
            "epoch_date_close_approach": 1648372260000,
            "relative_velocity": {
                "kilometers_per_second": "6.411321954",
                "kilometers_per_hour": "23080.7590343855",
                "miles_per_hour": "14341.4860788936"
            },
            "miss_distance": {
                "astronomical": "1.9539511561",
                "lunar": "760.0869997229",
                "kilometers": "292306931.036597507",
                "miles": "181631104.5999073166"
            },
            "orbiting_body": "Juptr"
        }
    ],
    "orbital_data": {
        "orbit_id": "6",
        "orbit_determination_date": "2020-03-22 06:08:57",
        "first_observation_date": "2020-03-15",
        "last_observation_date": "2020-03-21",
        "data_arc_in_days": 6,
        "observations_used": 112,
        "orbit_uncertainty": "7",
        "minimum_orbit_intersection": ".0143146",
        "jupiter_tisserand_invariant": "3.276",
        "epoch_osculation": "2459000.5",
        "eccentricity": ".5783562662378202",
        "semi_major_axis": "2.398728363722265",
        "inclination": "2.515233122357357",
        "ascending_node_longitude": "7.298056607482854",
        "orbital_period": "1356.969332057103",
        "perihelion_distance": "1.0114087835611",
        "perihelion_argument": "174.854005545704",
        "aphelion_distance": "3.786047943883429",
        "perihelion_time": "2458929.891786986847",
        "mean_anomaly": "18.73215266125521",
        "mean_motion": ".265297078935643",
        "equinox": "J2000",
        "orbit_class": {
            "orbit_class_type": "APO",
            "orbit_class_description": "Near-Earth asteroid orbits which cross the Earth’s orbit similar to that of 1862 Apollo",
            "orbit_class_range": "a (semi-major axis) > 1.0 AU; q (perihelion) < 1.017 AU"
        }
    },
    "is_sentry_object": false
}